HAWK-5A                 
1 52757U 22057AB  26201.95841727  .00013382  00000+0  22047-3 0  9990
2 52757  97.6637   3.0231 0002942 309.8300  50.2692 15.52455151231582
HAWK-6B                 
1 55324U 23011A   26202.21396356  .00003272  00000+0  14359-3 0  9991
2 55324  40.4981 153.5607 0004583 270.8827  89.1457 15.23188223193033
HAWK-6C                 
1 55326U 23011C   26202.27889590  .00003204  00000+0  14074-3 0  9995
2 55326  40.4970 150.0170 0005074 266.0361  93.9869 15.23188167193055
HAWK-6A                 
1 55327U 23011D   26202.21336814  .00003239  00000+0  14221-3 0  9998
2 55327  40.4979 152.0272 0004771 262.7160  97.3107 15.23188189193049
HAWK-7A                 
1 56191U 23054P   26202.10876268  .00003944  00000+0  14853-3 0  9999
2 56191  97.2652  88.5833 0000988 289.7261  70.3872 15.27671200182201
HAWK-7B                 
1 56193U 23054R   26202.10869537  .00003867  00000+0  14565-3 0  9996
2 56193  97.2678  86.8591 0000657   1.1831 358.9410 15.27672935182204
HAWK-7C                 
1 56200U 23054Y   26202.04306556  .00003947  00000+0  14862-3 0  9994
2 56200  97.2657  87.5533 0000363 305.0982  55.0223 15.27671668182198
