OBJECT_NAME,OBJECT_ID,EPOCH,MEAN_MOTION,ECCENTRICITY,INCLINATION,RA_OF_ASC_NODE,ARG_OF_PERICENTER,MEAN_ANOMALY,EPHEMERIS_TYPE,CLASSIFICATION_TYPE,NORAD_CAT_ID,ELEMENT_SET_NO,REV_AT_EPOCH,BSTAR,MEAN_MOTION_DOT,MEAN_MOTION_DDOT
HAWK-5A,2022-057AB,2026-07-20T23:00:07.252128,15.52455151,.00029429,97.6637,3.0231,309.8300,50.2692,0,U,52757,999,23158,.22046684E-3,.13382E-3,0
HAWK-6B,2023-011A,2026-07-21T05:08:06.451584,15.23188223,.00045838,40.4981,153.5607,270.8827,89.1457,0,U,55324,999,19303,.14358561E-3,.3272E-4,0
HAWK-6C,2023-011C,2026-07-21T06:41:36.605760,15.23188167,.0005074,40.4970,150.0170,266.0361,93.9869,0,U,55326,999,19305,.1407412E-3,.3204E-4,0
HAWK-6A,2023-011D,2026-07-21T05:07:15.007296,15.23188189,.0004771,40.4979,152.0272,262.7160,97.3107,0,U,55327,999,19304,.14221103E-3,.3239E-4,0
HAWK-7A,2023-054P,2026-07-21T02:36:37.095552,15.27671200,.00009888,97.2652,88.5833,289.7261,70.3872,0,U,56191,999,18220,.1485272E-3,.3944E-4,0
HAWK-7B,2023-054R,2026-07-21T02:36:31.279968,15.27672935,.00006578,97.2678,86.8591,1.1831,358.9410,0,U,56193,999,18220,.14565309E-3,.3867E-4,0
HAWK-7C,2023-054Y,2026-07-21T01:02:00.864384,15.27671668,.00003639,97.2657,87.5533,305.0982,55.0223,0,U,56200,999,18219,.1486204E-3,.3947E-4,0
